{"type": "FeatureCollection", "features": [{"type": "Feature", "properties": {"norad_id": 24946, "name": "IRIDIUM 33", "group": "iridium-33-debris", "lat": 2.2116702656721343, "lon": -109.87000154278645, "alt_km": 774.2583075705243, "timestamp": "2025-12-07T20:38:14.448422+00:00", "meta": {"OBJECT_NAME": "IRIDIUM 33", "OBJECT_ID": "1997-051C", "EPOCH": "2025-12-07T04:45:00.357120", "MEAN_MOTION": 14.35031214, "ECCENTRICITY": 0.00064462, "INCLINATION": 86.387, "RA_OF_ASC_NODE": 70.5476, "ARG_OF_PERICENTER": 221.2361, "MEAN_ANOMALY": 138.8349, "EPHEMERIS_TYPE": 0, "CLASSIFICATION_TYPE": "U", "NORAD_CAT_ID": 24946, "ELEMENT_SET_NO": 999, "REV_AT_EPOCH": 47755, "BSTAR": 0.00022392776, "MEAN_MOTION_DOT": 6.57e-06, "MEAN_MOTION_DDOT": 0}, "tle": {"line1": "1 24946U 97051C   25341.19792080  .00000657  00000+0  22393-3 0  9997", "line2": "2 24946  86.3870  70.5476 0006446 221.2361 138.8349 14.35031214477553"}}, "geometry": {"type": "Point", "coordinates": [-109.87000154278645, 2.2116702656721343]}}, {"type": "Feature", "properties": {"norad_id": 33773, "name": "IRIDIUM 33 DEB", "group": "iridium-33-debris", "lat": -9.504281840827533, "lon": 62.05372431992596, "alt_km": 760.4335355529774, "timestamp": "2025-12-07T20:38:14.448447+00:00", "meta": {"OBJECT_NAME": "IRIDIUM 33 DEB", "OBJECT_ID": "1997-051L", "EPOCH": "2025-12-07T05:42:20.091456", "MEAN_MOTION": 14.43239479, "ECCENTRICITY": 0.00119779, "INCLINATION": 86.4015, "RA_OF_ASC_NODE": 62.9209, "ARG_OF_PERICENTER": 162.8584, "MEAN_ANOMALY": 197.3023, "EPHEMERIS_TYPE": 0, "CLASSIFICATION_TYPE": "U", "NORAD_CAT_ID": 33773, "ELEMENT_SET_NO": 999, "REV_AT_EPOCH": 88268, "BSTAR": 0.0006316383, "MEAN_MOTION_DOT": 2.145e-05, "MEAN_MOTION_DDOT": 0}, "tle": {"line1": "1 33773U 97051L   25341.23773254  .00002145  00000+0  63164-3 0  9997", "line2": "2 33773  86.4015  62.9209 0011977 162.8584 197.3023 14.43239479882689"}}, "geometry": {"type": "Point", "coordinates": [62.05372431992596, -9.504281840827533]}}, {"type": "Feature", "properties": {"norad_id": 33775, "name": "IRIDIUM 33 DEB", "group": "iridium-33-debris", "lat": 74.20861934388097, "lon": -141.35600432125273, "alt_km": 742.5060716397347, "timestamp": "2025-12-07T20:38:14.448462+00:00", "meta": {"OBJECT_NAME": "IRIDIUM 33 DEB", "OBJECT_ID": "1997-051N", "EPOCH": "2025-12-06T23:03:51.104160", "MEAN_MOTION": 14.41448889, "ECCENTRICITY": 0.0013629, "INCLINATION": 86.3642, "RA_OF_ASC_NODE": 52.0203, "ARG_OF_PERICENTER": 172.757, "MEAN_ANOMALY": 311.204, "EPHEMERIS_TYPE": 0, "CLASSIFICATION_TYPE": "U", "NORAD_CAT_ID": 33775, "ELEMENT_SET_NO": 999, "REV_AT_EPOCH": 88057, "BSTAR": 0.00060366825, "MEAN_MOTION_DOT": 1.979e-05, "MEAN_MOTION_DDOT": 0}, "tle": {"line1": "1 33775U 97051N   25340.96100815  .00001979  00000+0  60367-3 0  9991", "line2": "2 33775  86.3642  52.0203 0013629 172.7570 311.2040 14.41448889880578"}}, "geometry": {"type": "Point", "coordinates": [-141.35600432125273, 74.20861934388097]}}, {"type": "Feature", "properties": {"norad_id": 33776, "name": "IRIDIUM 33 DEB", "group": "iridium-33-debris", "lat": 31.70637785877282, "lon": 85.0515361185844, "alt_km": 772.4343109582933, "timestamp": "2025-12-07T20:38:14.448474+00:00", "meta": {"OBJECT_NAME": "IRIDIUM 33 DEB", "OBJECT_ID": "1997-051P", "EPOCH": "2025-12-07T07:14:17.312064", "MEAN_MOTION": 14.38219191, "ECCENTRICITY": 0.00137305, "INCLINATION": 86.4036, "RA_OF_ASC_NODE": 83.0593, "ARG_OF_PERICENTER": 209.1626, "MEAN_ANOMALY": 173.9053, "EPHEMERIS_TYPE": 0, "CLASSIFICATION_TYPE": "U", "NORAD_CAT_ID": 33776, "ELEMENT_SET_NO": 999, "REV_AT_EPOCH": 88004, "BSTAR": 0.00059346933, "MEAN_MOTION_DOT": 1.823e-05, "MEAN_MOTION_DDOT": 0}, "tle": {"line1": "1 33776U 97051P   25341.30158926  .00001823  00000+0  59347-3 0  9991", "line2": "2 33776  86.4036  83.0593 0013730 209.1626 173.9053 14.38219191880040"}}, "geometry": {"type": "Point", "coordinates": [85.0515361185844, 31.70637785877282]}}, {"type": "Feature", "properties": {"norad_id": 33777, "name": "IRIDIUM 33 DEB", "group": "iridium-33-debris", "lat": -54.97618301965781, "lon": -137.4890147031344, "alt_km": 711.8296007083663, "timestamp": "2025-12-07T20:38:14.448486+00:00", "meta": {"OBJECT_NAME": "IRIDIUM 33 DEB", "OBJECT_ID": "1997-051Q", "EPOCH": "2025-12-06T22:06:40.267296", "MEAN_MOTION": 14.55548471, "ECCENTRICITY": 0.0005113, "INCLINATION": 86.3787, "RA_OF_ASC_NODE": 37.7345, "ARG_OF_PERICENTER": 276.5659, "MEAN_ANOMALY": 83.4966, "EPHEMERIS_TYPE": 0, "CLASSIFICATION_TYPE": "U", "NORAD_CAT_ID": 33777, "ELEMENT_SET_NO": 999, "REV_AT_EPOCH": 88449, "BSTAR": 0.0014973212, "MEAN_MOTION_DOT": 6.544e-05, "MEAN_MOTION_DDOT": 0}, "tle": {"line1": "1 33777U 97051Q   25340.92129939  .00006544  00000+0  14973-2 0  9991", "line2": "2 33777  86.3787  37.7345 0005113 276.5659  83.4966 14.55548471884490"}}, "geometry": {"type": "Point", "coordinates": [-137.4890147031344, -54.97618301965781]}}, {"type": "Feature", "properties": {"norad_id": 33850, "name": "IRIDIUM 33 DEB", "group": "iridium-33-debris", "lat": 73.92101596767108, "lon": 45.10125044787738, "alt_km": 746.1516499823583, "timestamp": "2025-12-07T20:38:14.448498+00:00", "meta": {"OBJECT_NAME": "IRIDIUM 33 DEB", "OBJECT_ID": "1997-051T", "EPOCH": "2025-12-07T03:42:45.952128", "MEAN_MOTION": 14.42129563, "ECCENTRICITY": 0.00116843, "INCLINATION": 86.342, "RA_OF_ASC_NODE": 32.5811, "ARG_OF_PERICENTER": 178.2803, "MEAN_ANOMALY": 197.4222, "EPHEMERIS_TYPE": 0, "CLASSIFICATION_TYPE": "U", "NORAD_CAT_ID": 33850, "ELEMENT_SET_NO": 999, "REV_AT_EPOCH": 88072, "BSTAR": 0.00063283827, "MEAN_MOTION_DOT": 2.101e-05, "MEAN_MOTION_DDOT": 0}, "tle": {"line1": "1 33850U 97051T   25341.15469852  .00002101  00000+0  63284-3 0  9995", "line2": "2 33850  86.3420  32.5811 0011684 178.2803 197.4222 14.42129563880722"}}, "geometry": {"type": "Point", "coordinates": [45.10125044787738, 73.92101596767108]}}, {"type": "Feature", "properties": {"norad_id": 33853, "name": "IRIDIUM 33 DEB", "group": "iridium-33-debris", "lat": 48.29704344502072, "lon": 167.44781327710305, "alt_km": 964.5644820636326, "timestamp": "2025-12-07T20:38:14.448509+00:00", "meta": {"OBJECT_NAME": "IRIDIUM 33 DEB", "OBJECT_ID": "1997-051W", "EPOCH": "2025-12-06T23:31:10.272864", "MEAN_MOTION": 13.99007831, "ECCENTRICITY": 0.02068364, "INCLINATION": 85.9998, "RA_OF_ASC_NODE": 352.3374, "ARG_OF_PERICENTER": 253.6346, "MEAN_ANOMALY": 131.0011, "EPHEMERIS_TYPE": 0, "CLASSIFICATION_TYPE": "U", "NORAD_CAT_ID": 33853, "ELEMENT_SET_NO": 999, "REV_AT_EPOCH": 85265, "BSTAR": 0.0032775714, "MEAN_MOTION_DOT": 5.705e-05, "MEAN_MOTION_DDOT": 0}, "tle": {"line1": "1 33853U 97051W   25340.97998001  .00005705  00000+0  32776-2 0  9994", "line2": "2 33853  85.9998 352.3374 0206836 253.6346 131.0011 13.99007831852657"}}, "geometry": {"type": "Point", "coordinates": [167.44781327710305, 48.29704344502072]}}, {"type": "Feature", "properties": {"norad_id": 33860, "name": "IRIDIUM 33 DEB", "group": "iridium-33-debris", "lat": -73.05928302205375, "lon": 17.415798258312734, "alt_km": 676.8855097968053, "timestamp": "2025-12-07T20:38:14.448520+00:00", "meta": {"OBJECT_NAME": "IRIDIUM 33 DEB", "OBJECT_ID": "1997-051AD", "EPOCH": "2025-12-06T21:13:29.814240", "MEAN_MOTION": 14.67255525, "ECCENTRICITY": 0.00082345, "INCLINATION": 86.3839, "RA_OF_ASC_NODE": 29.8298, "ARG_OF_PERICENTER": 17.2013, "MEAN_ANOMALY": 160.0109, "EPHEMERIS_TYPE": 0, "CLASSIFICATION_TYPE": "U", "NORAD_CAT_ID": 33860, "ELEMENT_SET_NO": 999, "REV_AT_EPOCH": 88636, "BSTAR": 0.0021693873, "MEAN_MOTION_DOT": 0.00012261, "MEAN_MOTION_DDOT": 0}, "tle": {"line1": "1 33860U 97051AD  25340.88437285  .00012261  00000+0  21694-2 0  9996", "line2": "2 33860  86.3839  29.8298 0008234  17.2013 160.0109 14.67255525886368"}}, "geometry": {"type": "Point", "coordinates": [17.415798258312734, -73.05928302205375]}}, {"type": "Feature", "properties": {"norad_id": 33862, "name": "IRIDIUM 33 DEB", "group": "iridium-33-debris", "lat": -74.59423478026761, "lon": 26.50903524735922, "alt_km": 706.2055790827317, "timestamp": "2025-12-07T20:38:14.448531+00:00", "meta": {"OBJECT_NAME": "IRIDIUM 33 DEB", "OBJECT_ID": "1997-051AF", "EPOCH": "2025-12-07T03:07:54.500160", "MEAN_MOTION": 14.69339991, "ECCENTRICITY": 0.00538338, "INCLINATION": 86.4091, "RA_OF_ASC_NODE": 40.0036, "ARG_OF_PERICENTER": 87.8987, "MEAN_ANOMALY": 301.5892, "EPHEMERIS_TYPE": 0, "CLASSIFICATION_TYPE": "U", "NORAD_CAT_ID": 33862, "ELEMENT_SET_NO": 999, "REV_AT_EPOCH": 88741, "BSTAR": 0.0022160493, "MEAN_MOTION_DOT": 0.00013418, "MEAN_MOTION_DDOT": 0}, "tle": {"line1": "1 33862U 97051AF  25341.13049190  .00013418  00000+0  22160-2 0  9995", "line2": "2 33862  86.4091  40.0036 0053833  87.8987 301.5892 14.69339991887414"}}, "geometry": {"type": "Point", "coordinates": [26.50903524735922, -74.59423478026761]}}, {"type": "Feature", "properties": {"norad_id": 33866, "name": "IRIDIUM 33 DEB", "group": "iridium-33-debris", "lat": 43.787591923020166, "lon": 98.65595959496882, "alt_km": 859.3936594742172, "timestamp": "2025-12-07T20:38:14.448542+00:00", "meta": {"OBJECT_NAME": "IRIDIUM 33 DEB", "OBJECT_ID": "1997-051AK", "EPOCH": "2025-12-07T07:04:59.173248", "MEAN_MOTION": 14.25246187, "ECCENTRICITY": 0.01140398, "INCLINATION": 86.3005, "RA_OF_ASC_NODE": 95.3392, "ARG_OF_PERICENTER": 178.7496, "MEAN_ANOMALY": 210.2854, "EPHEMERIS_TYPE": 0, "CLASSIFICATION_TYPE": "U", "NORAD_CAT_ID": 33866, "ELEMENT_SET_NO": 999, "REV_AT_EPOCH": 86733, "BSTAR": 0.0012304982, "MEAN_MOTION_DOT": 3.115e-05, "MEAN_MOTION_DDOT": 0}, "tle": {"line1": "1 33866U 97051AK  25341.29512932  .00003115  00000+0  12305-2 0  9998", "line2": "2 33866  86.3005  95.3392 0114039 178.7496 210.2854 14.25246187867330"}}, "geometry": {"type": "Point", "coordinates": [98.65595959496882, 43.787591923020166]}}]}